STARLINK-31516          
1 59221U 24046W   25318.28134911  .00001264  00000+0  54810-4 0  9997
2 59221  53.1619 331.1396 0001356 119.4472 240.6664 15.30194881 95377
STARLINK-31490          
1 59222U 24046X   25318.32988903  .00000906  00000+0  42701-4 0  9999
2 59222  53.1621 331.4392 0001110  97.5040 262.6087 15.30196108 95372
STARLINK-31420          
1 59223U 24046Y   25318.32672838  .00049646  00000+0  16752-2 0  9996
2 59223  53.1594 331.4186 0001495  82.0316 278.0855 15.30237734 95379
STARLINK-31304          
1 59231U 24049A   25317.65140375 -.00004779  00000+0 -16425-3 0  9997
2 59231  43.0000  68.1372 0001357 269.9046  90.1650 15.27576930 94771
STARLINK-31305          
1 59232U 24049B   25317.72822742 -.00004621  00000+0 -15871-3 0  9991
2 59232  43.0046  78.2018 0001220 271.9727  88.0985 15.27537887 94651
STARLINK-31459          
1 59233U 24049C   25317.74363040 -.00002557  00000+0 -83471-4 0  9993
2 59233  43.0032  78.3367 0001226 261.9348  98.1364 15.27566823 94665
STARLINK-31438          
1 59234U 24049D   25317.36932801 -.00002703  00000+0 -88809-4 0  9992
2 59234  43.0046  69.4414 0001404 285.5943  74.4754 15.27554130 94732
STARLINK-31467          
1 59235U 24049E   25317.67567018 -.00003297  00000+0 -11039-3 0  9990
2 59235  43.0022  78.6850 0001668 267.8195  92.2466 15.27558320 94662
STARLINK-31444          
1 59236U 24049F   25317.55606834 -.00011160  00000+0 -39750-3 0  9996
2 59236  43.0023   9.8986 0001812 270.5735  89.4909 15.27508503 95414
STARLINK-31505          
1 59237U 24049G   25317.61670992 -.00014719  00000+0 -52720-3 0  9995
2 59237  43.0014  79.1129 0001279 269.2269  90.8436 15.27530438 94656
STARLINK-31494          
1 59238U 24049H   25318.31412028 -.00000183  00000+0  28819-5 0  9991
2 59238  43.0045  74.8787 0001162 272.8166  87.2553 15.27562657 94760
STARLINK-31303          
1 59239U 24049J   25317.38599935  .00000243  00000+0  18355-4 0  9990
2 59239  42.9995  69.5024 0001101 222.9864 137.0901 15.27577250 94746
STARLINK-31408          
1 59240U 24049K   25317.70009309 -.00003172  00000+0 -10587-3 0  9993
2 59240  43.0002  78.8716 0001519 274.7042  85.3636 15.27559405 94669
STARLINK-31427          
1 59241U 24049L   25317.76933728  .00001577  00000+0  66838-4 0  9997
2 59241  42.9970  78.5008 0000907 286.3570  73.7182 15.27566043 94672
STARLINK-31423          
1 59242U 24049M   25317.76291383 -.00003140  00000+0 -10469-3 0  9990
2 59242  43.0023  78.4780 0002516 280.2087  79.8481 15.27550721 94679
STARLINK-31433          
1 59243U 24049N   25317.73719892 -.00004111  00000+0 -14005-3 0  9997
2 59243  43.0038  78.2859 0001584 259.9778 100.0895 15.27558911 94670
