[{"OBJECT_NAME":"STARLINK-31516","OBJECT_ID":"2024-046W","EPOCH":"2025-11-14T06:45:08.563104","MEAN_MOTION":15.30194881,"ECCENTRICITY":0.00013566,"INCLINATION":53.1619,"RA_OF_ASC_NODE":331.1396,"ARG_OF_PERICENTER":119.4472,"MEAN_ANOMALY":240.6664,"EPHEMERIS_TYPE":0,"CLASSIFICATION_TYPE":"U","NORAD_CAT_ID":59221,"ELEMENT_SET_NO":999,"REV_AT_EPOCH":9537,"BSTAR":5.4810339e-5,"MEAN_MOTION_DOT":1.264e-5,"MEAN_MOTION_DDOT":0},{"OBJECT_NAME":"STARLINK-31490","OBJECT_ID":"2024-046X","EPOCH":"2025-11-14T07:55:02.412192","MEAN_MOTION":15.30196108,"ECCENTRICITY":0.00011105,"INCLINATION":53.1621,"RA_OF_ASC_NODE":331.4392,"ARG_OF_PERICENTER":97.504,"MEAN_ANOMALY":262.6087,"EPHEMERIS_TYPE":0,"CLASSIFICATION_TYPE":"U","NORAD_CAT_ID":59222,"ELEMENT_SET_NO":999,"REV_AT_EPOCH":9537,"BSTAR":4.2700632e-5,"MEAN_MOTION_DOT":9.06e-6,"MEAN_MOTION_DDOT":0},{"OBJECT_NAME":"STARLINK-31420","OBJECT_ID":"2024-046Y","EPOCH":"2025-11-14T07:50:29.332032","MEAN_MOTION":15.30237734,"ECCENTRICITY":0.00014952,"INCLINATION":53.1594,"RA_OF_ASC_NODE":331.4186,"ARG_OF_PERICENTER":82.0316,"MEAN_ANOMALY":278.0855,"EPHEMERIS_TYPE":0,"CLASSIFICATION_TYPE":"U","NORAD_CAT_ID":59223,"ELEMENT_SET_NO":999,"REV_AT_EPOCH":9537,"BSTAR":0.0016752234,"MEAN_MOTION_DOT":0.00049646,"MEAN_MOTION_DDOT":0},{"OBJECT_NAME":"STARLINK-31304","OBJECT_ID":"2024-049A","EPOCH":"2025-11-13T15:38:01.284000","MEAN_MOTION":15.2757693,"ECCENTRICITY":0.00013573,"INCLINATION":43,"RA_OF_ASC_NODE":68.1372,"ARG_OF_PERICENTER":269.9046,"MEAN_ANOMALY":90.165,"EPHEMERIS_TYPE":0,"CLASSIFICATION_TYPE":"U","NORAD_CAT_ID":59231,"ELEMENT_SET_NO":999,"REV_AT_EPOCH":9477,"BSTAR":-0.00016425071,"MEAN_MOTION_DOT":-4.779e-5,"MEAN_MOTION_DDOT":0},{"OBJECT_NAME":"STARLINK-31305","OBJECT_ID":"2024-049B","EPOCH":"2025-11-13T17:28:38.849088","MEAN_MOTION":15.27537887,"ECCENTRICITY":0.00012207,"INCLINATION":43.0046,"RA_OF_ASC_NODE":78.2018,"ARG_OF_PERICENTER":271.9727,"MEAN_ANOMALY":88.0985,"EPHEMERIS_TYPE":0,"CLASSIFICATION_TYPE":"U","NORAD_CAT_ID":59232,"ELEMENT_SET_NO":999,"REV_AT_EPOCH":9465,"BSTAR":-0.00015870765,"MEAN_MOTION_DOT":-4.621e-5,"MEAN_MOTION_DDOT":0},{"OBJECT_NAME":"STARLINK-31459","OBJECT_ID":"2024-049C","EPOCH":"2025-11-13T17:50:49.666560","MEAN_MOTION":15.27566823,"ECCENTRICITY":0.00012266,"INCLINATION":43.0032,"RA_OF_ASC_NODE":78.3367,"ARG_OF_PERICENTER":261.9348,"MEAN_ANOMALY":98.1364,"EPHEMERIS_TYPE":0,"CLASSIFICATION_TYPE":"U","NORAD_CAT_ID":59233,"ELEMENT_SET_NO":999,"REV_AT_EPOCH":9466,"BSTAR":-8.3471408e-5,"MEAN_MOTION_DOT":-2.557e-5,"MEAN_MOTION_DDOT":0},{"OBJECT_NAME":"STARLINK-31438","OBJECT_ID":"2024-049D","EPOCH":"2025-11-13T08:51:49.940064","MEAN_MOTION":15.2755413,"ECCENTRICITY":0.0001404,"INCLINATION":43.0046,"RA_OF_ASC_NODE":69.4414,"ARG_OF_PERICENTER":285.5943,"MEAN_ANOMALY":74.4754,"EPHEMERIS_TYPE":0,"CLASSIFICATION_TYPE":"U","NORAD_CAT_ID":59234,"ELEMENT_SET_NO":999,"REV_AT_EPOCH":9473,"BSTAR":-8.8809e-5,"MEAN_MOTION_DOT":-2.703e-5,"MEAN_MOTION_DDOT":0},{"OBJECT_NAME":"STARLINK-31467","OBJECT_ID":"2024-049E","EPOCH":"2025-11-13T16:12:57.903552","MEAN_MOTION":15.2755832,"ECCENTRICITY":0.00016681,"INCLINATION":43.0022,"RA_OF_ASC_NODE":78.685,"ARG_OF_PERICENTER":267.8195,"MEAN_ANOMALY":92.2466,"EPHEMERIS_TYPE":0,"CLASSIFICATION_TYPE":"U","NORAD_CAT_ID":59235,"ELEMENT_SET_NO":999,"REV_AT_EPOCH":9466,"BSTAR":-0.00011038998,"MEAN_MOTION_DOT":-3.297e-5,"MEAN_MOTION_DDOT":0},{"OBJECT_NAME":"STARLINK-31444","OBJECT_ID":"2024-049F","EPOCH":"2025-11-13T13:20:44.304576","MEAN_MOTION":15.27508503,"ECCENTRICITY":0.0001812,"INCLINATION":43.0023,"RA_OF_ASC_NODE":9.8986,"ARG_OF_PERICENTER":270.5735,"MEAN_ANOMALY":89.4909,"EPHEMERIS_TYPE":0,"CLASSIFICATION_TYPE":"U","NORAD_CAT_ID":59236,"ELEMENT_SET_NO":999,"REV_AT_EPOCH":9541,"BSTAR":-0.0003975,"MEAN_MOTION_DOT":-0.0001116,"MEAN_MOTION_DDOT":0},{"OBJECT_NAME":"STARLINK-31505","OBJECT_ID":"2024-049G","EPOCH":"2025-11-13T14:48:03.737088","MEAN_MOTION":15.27530438,"ECCENTRICITY":0.0001279,"INCLINATION":43.0014,"RA_OF_ASC_NODE":79.1129,"ARG_OF_PERICENTER":269.2269,"MEAN_ANOMALY":90.8436,"EPHEMERIS_TYPE":0,"CLASSIFICATION_TYPE":"U","NORAD_CAT_ID":59237,"ELEMENT_SET_NO":999,"REV_AT_EPOCH":9465,"BSTAR":-0.0005272,"MEAN_MOTION_DOT":-0.00014719,"MEAN_MOTION_DDOT":0},{"OBJECT_NAME":"STARLINK-31494","OBJECT_ID":"2024-049H","EPOCH":"2025-11-14T07:32:19.992192","MEAN_MOTION":15.27562657,"ECCENTRICITY":0.00011628,"INCLINATION":43.0045,"RA_OF_ASC_NODE":74.8787,"ARG_OF_PERICENTER":272.8166,"MEAN_ANOMALY":87.2553,"EPHEMERIS_TYPE":0,"CLASSIFICATION_TYPE":"U","NORAD_CAT_ID":59238,"ELEMENT_SET_NO":999,"REV_AT_EPOCH":9476,"BSTAR":2.881903e-6,"MEAN_MOTION_DOT":-1.83e-6,"MEAN_MOTION_DDOT":0},{"OBJECT_NAME":"STARLINK-31303","OBJECT_ID":"2024-049J","EPOCH":"2025-11-13T09:15:50.343840","MEAN_MOTION":15.2757725,"ECCENTRICITY":0.0001101,"INCLINATION":42.9995,"RA_OF_ASC_NODE":69.5024,"ARG_OF_PERICENTER":222.9864,"MEAN_ANOMALY":137.0901,"EPHEMERIS_TYPE":0,"CLASSIFICATION_TYPE":"U","NORAD_CAT_ID":59239,"ELEMENT_SET_NO":999,"REV_AT_EPOCH":9474,"BSTAR":1.8355e-5,"MEAN_MOTION_DOT":2.43e-6,"MEAN_MOTION_DDOT":0},{"OBJECT_NAME":"STARLINK-31408","OBJECT_ID":"2024-049K","EPOCH":"2025-11-13T16:48:08.042976","MEAN_MOTION":15.27559405,"ECCENTRICITY":0.00015194,"INCLINATION":43.0002,"RA_OF_ASC_NODE":78.8716,"ARG_OF_PERICENTER":274.7042,"MEAN_ANOMALY":85.3636,"EPHEMERIS_TYPE":0,"CLASSIFICATION_TYPE":"U","NORAD_CAT_ID":59240,"ELEMENT_SET_NO":999,"REV_AT_EPOCH":9466,"BSTAR":-0.00010587158,"MEAN_MOTION_DOT":-3.172e-5,"MEAN_MOTION_DDOT":0},{"OBJECT_NAME":"STARLINK-31427","OBJECT_ID":"2024-049L","EPOCH":"2025-11-13T18:27:50.740992","MEAN_MOTION":15.27566043,"ECCENTRICITY":9.073e-5,"INCLINATION":42.997,"RA_OF_ASC_NODE":78.5008,"ARG_OF_PERICENTER":286.357,"MEAN_ANOMALY":73.7182,"EPHEMERIS_TYPE":0,"CLASSIFICATION_TYPE":"U","NORAD_CAT_ID":59241,"ELEMENT_SET_NO":999,"REV_AT_EPOCH":9467,"BSTAR":6.6838308e-5,"MEAN_MOTION_DOT":1.577e-5,"MEAN_MOTION_DDOT":0},{"OBJECT_NAME":"STARLINK-31423","OBJECT_ID":"2024-049M","EPOCH":"2025-11-13T18:18:35.754912","MEAN_MOTION":15.27550721,"ECCENTRICITY":0.00025162,"INCLINATION":43.0023,"RA_OF_ASC_NODE":78.478,"ARG_OF_PERICENTER":280.2087,"MEAN_ANOMALY":79.8481,"EPHEMERIS_TYPE":0,"CLASSIFICATION_TYPE":"U","NORAD_CAT_ID":59242,"ELEMENT_SET_NO":999,"REV_AT_EPOCH":9467,"BSTAR":-0.00010468685,"MEAN_MOTION_DOT":-3.14e-5,"MEAN_MOTION_DDOT":0},{"OBJECT_NAME":"STARLINK-31433","OBJECT_ID":"2024-049N","EPOCH":"2025-11-13T17:41:33.986688","MEAN_MOTION":15.27558911,"ECCENTRICITY":0.00015849,"INCLINATION":43.0038,"RA_OF_ASC_NODE":78.2859,"ARG_OF_PERICENTER":259.9778,"MEAN_ANOMALY":100.0895,"EPHEMERIS_TYPE":0,"CLASSIFICATION_TYPE":"U","NORAD_CAT_ID":59243,"ELEMENT_SET_NO":999,"REV_AT_EPOCH":9467,"BSTAR":-0.00014004922,"MEAN_MOTION_DOT":-4.111e-5,"MEAN_MOTION_DDOT":0}]
